STARLINK-34472          
1 64434U 25129Y   25276.25401626  .00007966  00000+0  67436-3 0  9994
2 64434  69.9997 111.4598 0003000 278.7056  81.3763 14.98347022 17702
STARLINK-34478          
1 64435U 25129Z   25275.97028232  .00006379  00000+0  54230-3 0  9996
2 64435  69.9996 112.0768 0003463 267.7737  92.3025 14.98301949 17605
STARLINK-34396          
1 64436U 25129AA  25276.26236802  .00009002  00000+0  76121-3 0  9993
2 64436  70.0005 111.4823 0002981 268.6512  91.4305 14.98333453 17640
STARLINK-34507          
1 64437U 25129AB  25275.95776223  .00029711  00000+0  24846-2 0  9990
2 64437  70.0001 112.0303 0002723 271.9488  88.1359 14.98373737 17663
STARLINK-34465          
1 64438U 25130A   25276.24518811  .00086989  00000+0  21598-2 0  9994
2 64438  53.1595 101.5594 0000679  87.4737 272.6346 15.39621814 16577
STARLINK-34456          
1 64439U 25130B   25275.91598245  .00071621  00000+0  17823-2 0  9990
2 64439  53.1585 103.0575 0001270 102.8504 257.2643 15.39645182 16523
STARLINK-34410          
1 64440U 25130C   25276.17098778  .00130086  00000+0  32027-2 0  9991
2 64440  53.1579 101.8047 0000516 148.9261 211.1775 15.39660028 16566
STARLINK-34453          
1 64441U 25130D   25276.10142216  .00085003  00000+0  21086-2 0  9993
2 64441  53.1577 102.0807 0001604 137.6050 222.5079 15.39660726 16559
STARLINK-34404          
1 64442U 25130E   25275.70730100  .00080735  00000+0  20051-2 0  9992
2 64442  53.1588 103.8854 0000841  89.7557 270.3544 15.39649194 16491
STARLINK-34403          
1 64443U 25130F   25275.81391139  .00141710  00000+0  34852-2 0  9995
2 64443  53.1575 103.1252 0001114  69.1055 291.0069 15.39637617 16514
STARLINK-34399          
1 64444U 25130G   25276.13383597  .00062184  00000+0  15513-2 0  9991
2 64444  53.1580 101.5677 0001184 101.3450 258.7688 15.39632856 16561
STARLINK-34398          
1 64445U 25130H   25275.89740438  .00068294  00000+0  16993-2 0  9996
2 64445  53.1577 102.9380 0000588 114.8506 245.2560 15.39668905 16522
STARLINK-34402          
1 64446U 25130J   25275.69802126  .00082350  00000+0  20464-2 0  9995
2 64446  53.1575 103.8274 0000631 102.6869 257.4206 15.39622932 16497
STARLINK-34450          
1 64447U 25130K   25275.82319598  .00087721  00000+0  21765-2 0  9999
2 64447  53.1570 103.1860 0000980  82.7312 277.3804 15.39638495 16514
STARLINK-34433          
1 64448U 25130L   25275.81855168  .00076109  00000+0  18931-2 0  9996
2 64448  53.1572 103.1561 0001261  60.7352 299.3779 15.39630620 16515
STARLINK-34459          
1 64449U 25130M   25275.93446557  .00080426  00000+0  20019-2 0  9995
2 64449  53.1585 102.4556 0001337  48.3451 311.7668 15.39583419 16533
