[{"OBJECT_NAME":"STARLINK-34472","OBJECT_ID":"2025-129Y","EPOCH":"2025-10-03T06:05:47.004864","MEAN_MOTION":14.98347022,"ECCENTRICITY":0.00030006,"INCLINATION":69.9997,"RA_OF_ASC_NODE":111.4598,"ARG_OF_PERICENTER":278.7056,"MEAN_ANOMALY":81.3763,"EPHEMERIS_TYPE":0,"CLASSIFICATION_TYPE":"U","NORAD_CAT_ID":64434,"ELEMENT_SET_NO":999,"REV_AT_EPOCH":1770,"BSTAR":0.00067435834,"MEAN_MOTION_DOT":7.966e-5,"MEAN_MOTION_DDOT":0},{"OBJECT_NAME":"STARLINK-34478","OBJECT_ID":"2025-129Z","EPOCH":"2025-10-02T23:17:12.392448","MEAN_MOTION":14.98301949,"ECCENTRICITY":0.00034637,"INCLINATION":69.9996,"RA_OF_ASC_NODE":112.0768,"ARG_OF_PERICENTER":267.7737,"MEAN_ANOMALY":92.3025,"EPHEMERIS_TYPE":0,"CLASSIFICATION_TYPE":"U","NORAD_CAT_ID":64435,"ELEMENT_SET_NO":999,"REV_AT_EPOCH":1760,"BSTAR":0.00054229639,"MEAN_MOTION_DOT":6.379e-5,"MEAN_MOTION_DDOT":0},{"OBJECT_NAME":"STARLINK-34396","OBJECT_ID":"2025-129AA","EPOCH":"2025-10-03T06:17:48.596928","MEAN_MOTION":14.98333453,"ECCENTRICITY":0.00029815,"INCLINATION":70.0005,"RA_OF_ASC_NODE":111.4823,"ARG_OF_PERICENTER":268.6512,"MEAN_ANOMALY":91.4305,"EPHEMERIS_TYPE":0,"CLASSIFICATION_TYPE":"U","NORAD_CAT_ID":64436,"ELEMENT_SET_NO":999,"REV_AT_EPOCH":1764,"BSTAR":0.00076120663,"MEAN_MOTION_DOT":9.002e-5,"MEAN_MOTION_DDOT":0},{"OBJECT_NAME":"STARLINK-34507","OBJECT_ID":"2025-129AB","EPOCH":"2025-10-02T22:59:10.656672","MEAN_MOTION":14.98373737,"ECCENTRICITY":0.00027233,"INCLINATION":70.0001,"RA_OF_ASC_NODE":112.0303,"ARG_OF_PERICENTER":271.9488,"MEAN_ANOMALY":88.1359,"EPHEMERIS_TYPE":0,"CLASSIFICATION_TYPE":"U","NORAD_CAT_ID":64437,"ELEMENT_SET_NO":999,"REV_AT_EPOCH":1766,"BSTAR":0.0024845515,"MEAN_MOTION_DOT":0.00029711,"MEAN_MOTION_DDOT":0},{"OBJECT_NAME":"STARLINK-34465","OBJECT_ID":"2025-130A","EPOCH":"2025-10-03T05:53:04.252704","MEAN_MOTION":15.39621814,"ECCENTRICITY":6.791e-5,"INCLINATION":53.1595,"RA_OF_ASC_NODE":101.5594,"ARG_OF_PERICENTER":87.4737,"MEAN_ANOMALY":272.6346,"EPHEMERIS_TYPE":0,"CLASSIFICATION_TYPE":"U","NORAD_CAT_ID":64438,"ELEMENT_SET_NO":999,"REV_AT_EPOCH":1657,"BSTAR":0.0021598449,"MEAN_MOTION_DOT":0.00086989,"MEAN_MOTION_DDOT":0},{"OBJECT_NAME":"STARLINK-34456","OBJECT_ID":"2025-130B","EPOCH":"2025-10-02T21:59:00.883680","MEAN_MOTION":15.39645182,"ECCENTRICITY":0.00012707,"INCLINATION":53.1585,"RA_OF_ASC_NODE":103.0575,"ARG_OF_PERICENTER":102.8504,"MEAN_ANOMALY":257.2643,"EPHEMERIS_TYPE":0,"CLASSIFICATION_TYPE":"U","NORAD_CAT_ID":64439,"ELEMENT_SET_NO":999,"REV_AT_EPOCH":1652,"BSTAR":0.0017822566,"MEAN_MOTION_DOT":0.00071621,"MEAN_MOTION_DDOT":0},{"OBJECT_NAME":"STARLINK-34410","OBJECT_ID":"2025-130C","EPOCH":"2025-10-03T04:06:13.344192","MEAN_MOTION":15.39660028,"ECCENTRICITY":5.161e-5,"INCLINATION":53.1579,"RA_OF_ASC_NODE":101.8047,"ARG_OF_PERICENTER":148.9261,"MEAN_ANOMALY":211.1775,"EPHEMERIS_TYPE":0,"CLASSIFICATION_TYPE":"U","NORAD_CAT_ID":64440,"ELEMENT_SET_NO":999,"REV_AT_EPOCH":1656,"BSTAR":0.0032027184,"MEAN_MOTION_DOT":0.00130086,"MEAN_MOTION_DDOT":0},{"OBJECT_NAME":"STARLINK-34453","OBJECT_ID":"2025-130D","EPOCH":"2025-10-03T02:26:02.874624","MEAN_MOTION":15.39660726,"ECCENTRICITY":0.0001604,"INCLINATION":53.1577,"RA_OF_ASC_NODE":102.0807,"ARG_OF_PERICENTER":137.605,"MEAN_ANOMALY":222.5079,"EPHEMERIS_TYPE":0,"CLASSIFICATION_TYPE":"U","NORAD_CAT_ID":64441,"ELEMENT_SET_NO":999,"REV_AT_EPOCH":1655,"BSTAR":0.0021086044,"MEAN_MOTION_DOT":0.00085003,"MEAN_MOTION_DDOT":0},{"OBJECT_NAME":"STARLINK-34404","OBJECT_ID":"2025-130E","EPOCH":"2025-10-02T16:58:30.806400","MEAN_MOTION":15.39649194,"ECCENTRICITY":8.417e-5,"INCLINATION":53.1588,"RA_OF_ASC_NODE":103.8854,"ARG_OF_PERICENTER":89.7557,"MEAN_ANOMALY":270.3544,"EPHEMERIS_TYPE":0,"CLASSIFICATION_TYPE":"U","NORAD_CAT_ID":64442,"ELEMENT_SET_NO":999,"REV_AT_EPOCH":1649,"BSTAR":0.0020051346,"MEAN_MOTION_DOT":0.00080735,"MEAN_MOTION_DDOT":0},{"OBJECT_NAME":"STARLINK-34403","OBJECT_ID":"2025-130F","EPOCH":"2025-10-02T19:32:01.944096","MEAN_MOTION":15.39637617,"ECCENTRICITY":0.00011148,"INCLINATION":53.1575,"RA_OF_ASC_NODE":103.1252,"ARG_OF_PERICENTER":69.1055,"MEAN_ANOMALY":291.0069,"EPHEMERIS_TYPE":0,"CLASSIFICATION_TYPE":"U","NORAD_CAT_ID":64443,"ELEMENT_SET_NO":999,"REV_AT_EPOCH":1651,"BSTAR":0.0034852496,"MEAN_MOTION_DOT":0.0014171,"MEAN_MOTION_DDOT":0},{"OBJECT_NAME":"STARLINK-34399","OBJECT_ID":"2025-130G","EPOCH":"2025-10-03T03:12:43.427808","MEAN_MOTION":15.39632856,"ECCENTRICITY":0.00011845,"INCLINATION":53.158,"RA_OF_ASC_NODE":101.5677,"ARG_OF_PERICENTER":101.345,"MEAN_ANOMALY":258.7688,"EPHEMERIS_TYPE":0,"CLASSIFICATION_TYPE":"U","NORAD_CAT_ID":64444,"ELEMENT_SET_NO":999,"REV_AT_EPOCH":1656,"BSTAR":0.0015512656,"MEAN_MOTION_DOT":0.00062184,"MEAN_MOTION_DDOT":0},{"OBJECT_NAME":"STARLINK-34398","OBJECT_ID":"2025-130H","EPOCH":"2025-10-02T21:32:15.738432","MEAN_MOTION":15.39668905,"ECCENTRICITY":5.887e-5,"INCLINATION":53.1577,"RA_OF_ASC_NODE":102.938,"ARG_OF_PERICENTER":114.8506,"MEAN_ANOMALY":245.256,"EPHEMERIS_TYPE":0,"CLASSIFICATION_TYPE":"U","NORAD_CAT_ID":64445,"ELEMENT_SET_NO":999,"REV_AT_EPOCH":1652,"BSTAR":0.0016993382,"MEAN_MOTION_DOT":0.00068294,"MEAN_MOTION_DDOT":0},{"OBJECT_NAME":"STARLINK-34402","OBJECT_ID":"2025-130J","EPOCH":"2025-10-02T16:45:09.036864","MEAN_MOTION":15.39622932,"ECCENTRICITY":6.318e-5,"INCLINATION":53.1575,"RA_OF_ASC_NODE":103.8274,"ARG_OF_PERICENTER":102.6869,"MEAN_ANOMALY":257.4206,"EPHEMERIS_TYPE":0,"CLASSIFICATION_TYPE":"U","NORAD_CAT_ID":64446,"ELEMENT_SET_NO":999,"REV_AT_EPOCH":1649,"BSTAR":0.0020463696,"MEAN_MOTION_DOT":0.0008235,"MEAN_MOTION_DDOT":0},{"OBJECT_NAME":"STARLINK-34450","OBJECT_ID":"2025-130K","EPOCH":"2025-10-02T19:45:24.132672","MEAN_MOTION":15.39638495,"ECCENTRICITY":9.802e-5,"INCLINATION":53.157,"RA_OF_ASC_NODE":103.186,"ARG_OF_PERICENTER":82.7312,"MEAN_ANOMALY":277.3804,"EPHEMERIS_TYPE":0,"CLASSIFICATION_TYPE":"U","NORAD_CAT_ID":64447,"ELEMENT_SET_NO":999,"REV_AT_EPOCH":1651,"BSTAR":0.0021765286,"MEAN_MOTION_DOT":0.00087721,"MEAN_MOTION_DDOT":0},{"OBJECT_NAME":"STARLINK-34433","OBJECT_ID":"2025-130L","EPOCH":"2025-10-02T19:38:42.865152","MEAN_MOTION":15.3963062,"ECCENTRICITY":0.00012613,"INCLINATION":53.1572,"RA_OF_ASC_NODE":103.1561,"ARG_OF_PERICENTER":60.7352,"MEAN_ANOMALY":299.3779,"EPHEMERIS_TYPE":0,"CLASSIFICATION_TYPE":"U","NORAD_CAT_ID":64448,"ELEMENT_SET_NO":999,"REV_AT_EPOCH":1651,"BSTAR":0.0018931043,"MEAN_MOTION_DOT":0.00076109,"MEAN_MOTION_DDOT":0},{"OBJECT_NAME":"STARLINK-34459","OBJECT_ID":"2025-130M","EPOCH":"2025-10-02T22:25:37.825248","MEAN_MOTION":15.39583419,"ECCENTRICITY":0.00013371,"INCLINATION":53.1585,"RA_OF_ASC_NODE":102.4556,"ARG_OF_PERICENTER":48.3451,"MEAN_ANOMALY":311.7668,"EPHEMERIS_TYPE":0,"CLASSIFICATION_TYPE":"U","NORAD_CAT_ID":64449,"ELEMENT_SET_NO":999,"REV_AT_EPOCH":1653,"BSTAR":0.0020018803,"MEAN_MOTION_DOT":0.00080426,"MEAN_MOTION_DDOT":0}]
